[{"OBJECT_NAME":"SAUDICOMSAT 1","OBJECT_ID":"2004-025D","EPOCH":"2026-03-09T22:47:58.064640","MEAN_MOTION":14.5538941,"ECCENTRICITY":0.00315786,"INCLINATION":98.5809,"RA_OF_ASC_NODE":76.3919,"ARG_OF_PERICENTER":329.4407,"MEAN_ANOMALY":30.4949,"EPHEMERIS_TYPE":0,"CLASSIFICATION_TYPE":"U","NORAD_CAT_ID":28369,"ELEMENT_SET_NO":999,"REV_AT_EPOCH":14969,"BSTAR":0.00015560401,"MEAN_MOTION_DOT":6.3e-6,"MEAN_MOTION_DDOT":0},{"OBJECT_NAME":"NOAA 16 DEB","OBJECT_ID":"2000-055FF","EPOCH":"2026-03-07T08:13:43.875552","MEAN_MOTION":14.57839262,"ECCENTRICITY":0.00283468,"INCLINATION":98.7635,"RA_OF_ASC_NODE":208.992,"ARG_OF_PERICENTER":304.2829,"MEAN_ANOMALY":55.5685,"EPHEMERIS_TYPE":0,"CLASSIFICATION_TYPE":"U","NORAD_CAT_ID":41255,"ELEMENT_SET_NO":999,"REV_AT_EPOCH":53457,"BSTAR":0.0039334703,"MEAN_MOTION_DOT":0.00018101,"MEAN_MOTION_DDOT":0}]
